{
  "type": "FeatureCollection",
  "features": [
    {
      "type": "Feature",
      "properties": {
        "norad_id": 38163,
        "name": "FENGYUN 1C DEB",
        "group": "fengyun-1c-debris",
        "lat": 13.011628836081593,
        "lon": 34.66161682155189,
        "alt_km": 928.5817765371039,
        "timestamp": "2025-12-26T03:50:12.383402+00:00",
        "meta_object_name": "FENGYUN 1C DEB",
        "meta_object_id": "1999-025ERL",
        "meta_epoch": "2025-12-24T07:21:56.877984",
        "meta_mean_motion": 14.05946513,
        "meta_eccentricity": 0.00764665,
        "meta_inclination": 99.1277,
        "meta_ra_of_asc_node": 34.9241,
        "meta_arg_of_pericenter": 210.1825,
        "meta_mean_anomaly": 149.4926,
        "meta_ephemeris_type": 0,
        "meta_classification_type": "U",
        "meta_norad_cat_id": 38163,
        "meta_element_set_no": 999,
        "meta_rev_at_epoch": 24704,
        "meta_bstar": 0.00077703552,
        "meta_mean_motion_dot": 1.261e-05,
        "meta_mean_motion_ddot": 0,
        "tle_line1": "1 38163U 99025ERL 25358.30690831  .00001261  00000+0  77704-3 0  9996",
        "tle_line2": "2 38163  99.1277  34.9241 0076466 210.1825 149.4926 14.05946513247049"
      },
      "geometry": {
        "type": "Point",
        "coordinates": [
          34.66161682155189,
          13.011628836081593
        ]
      }
    },
    {
      "type": "Feature",
      "properties": {
        "norad_id": 38166,
        "name": "FENGYUN 1C DEB",
        "group": "fengyun-1c-debris",
        "lat": 23.73572773348997,
        "lon": 99.80089000617959,
        "alt_km": 752.561210709795,
        "timestamp": "2025-12-26T03:50:12.383412+00:00",
        "meta_object_name": "FENGYUN 1C DEB",
        "meta_object_id": "1999-025ERP",
        "meta_epoch": "2025-12-25T17:39:29.269152",
        "meta_mean_motion": 14.31108061,
        "meta_eccentricity": 0.005176,
        "meta_inclination": 99.0777,
        "meta_ra_of_asc_node": 103.3893,
        "meta_arg_of_pericenter": 5.2769,
        "meta_mean_anomaly": 354.8948,
        "meta_ephemeris_type": 0,
        "meta_classification_type": "U",
        "meta_norad_cat_id": 38166,
        "meta_element_set_no": 999,
        "meta_rev_at_epoch": 63958,
        "meta_bstar": 0.002634,
        "meta_mean_motion_dot": 7.006e-05,
        "meta_mean_motion_ddot": 0,
        "tle_line1": "1 38166U 99025ERP 25359.73575543  .00007006  00000+0  26340-2 0  9991",
        "tle_line2": "2 38166  99.0777 103.3893 0051760   5.2769 354.8948 14.31108061639587"
      },
      "geometry": {
        "type": "Point",
        "coordinates": [
          99.80089000617959,
          23.73572773348997
        ]
      }
    },
    {
      "type": "Feature",
      "properties": {
        "norad_id": 38169,
        "name": "FENGYUN 1C DEB",
        "group": "fengyun-1c-debris",
        "lat": -39.169795357073006,
        "lon": -16.8506323705352,
        "alt_km": 652.761119088409,
        "timestamp": "2025-12-26T03:50:12.383424+00:00",
        "meta_object_name": "FENGYUN 1C DEB",
        "meta_object_id": "1999-025ERS",
        "meta_epoch": "2025-12-17T04:37:40.598400",
        "meta_mean_motion": 14.71570377,
        "meta_eccentricity": 0.00320132,
        "meta_inclination": 98.9779,
        "meta_ra_of_asc_node": 325.865,
        "meta_arg_of_pericenter": 54.7995,
        "meta_mean_anomaly": 305.6199,
        "meta_ephemeris_type": 0,
        "meta_classification_type": "U",
        "meta_norad_cat_id": 38169,
        "meta_element_set_no": 999,
        "meta_rev_at_epoch": 61334,
        "meta_bstar": 0.002130707,
        "meta_mean_motion_dot": 0.00013312,
        "meta_mean_motion_ddot": 0,
        "tle_line1": "1 38169U 99025ERS 25351.19283100  .00013312  00000+0  21307-2 0  9996",
        "tle_line2": "2 38169  98.9779 325.8650 0032013  54.7995 305.6199 14.71570377613347"
      },
      "geometry": {
        "type": "Point",
        "coordinates": [
          -16.8506323705352,
          -39.169795357073006
        ]
      }
    },
    {
      "type": "Feature",
      "properties": {
        "norad_id": 38173,
        "name": "FENGYUN 1C DEB",
        "group": "fengyun-1c-debris",
        "lat": 52.56574682789839,
        "lon": -110.9507996692563,
        "alt_km": 652.702024908348,
        "timestamp": "2025-12-26T03:50:12.383434+00:00",
        "meta_object_name": "FENGYUN 1C DEB",
        "meta_object_id": "1999-025ERW",
        "meta_epoch": "2025-12-16T11:20:48.017472",
        "meta_mean_motion": 14.37192423,
        "meta_eccentricity": 0.01631615,
        "meta_inclination": 99.0007,
        "meta_ra_of_asc_node": 250.8645,
        "meta_arg_of_pericenter": 101.6732,
        "meta_mean_anomaly": 260.2814,
        "meta_ephemeris_type": 0,
        "meta_classification_type": "U",
        "meta_norad_cat_id": 38173,
        "meta_element_set_no": 999,
        "meta_rev_at_epoch": 60697,
        "meta_bstar": 0.00064310917,
        "meta_mean_motion_dot": 2.179e-05,
        "meta_mean_motion_ddot": 0,
        "tle_line1": "1 38173U 99025ERW 25350.47277798  .00002179  00000+0  64311-3 0  9999",
        "tle_line2": "2 38173  99.0007 250.8645 0163161 101.6732 260.2814 14.37192423606974"
      },
      "geometry": {
        "type": "Point",
        "coordinates": [
          -110.9507996692563,
          52.56574682789839
        ]
      }
    },
    {
      "type": "Feature",
      "properties": {
        "norad_id": 38493,
        "name": "FENGYUN 1C DEB",
        "group": "fengyun-1c-debris",
        "lat": -65.26135311112746,
        "lon": 118.37403748637638,
        "alt_km": 775.9904032790109,
        "timestamp": "2025-12-26T03:50:12.383444+00:00",
        "meta_object_name": "FENGYUN 1C DEB",
        "meta_object_id": "1999-025ESC",
        "meta_epoch": "2025-12-24T15:22:34.770144",
        "meta_mean_motion": 13.62325657,
        "meta_eccentricity": 0.0426499,
        "meta_inclination": 99.0811,
        "meta_ra_of_asc_node": 317.2644,
        "meta_arg_of_pericenter": 214.2479,
        "meta_mean_anomaly": 143.0477,
        "meta_ephemeris_type": 0,
        "meta_classification_type": "U",
        "meta_norad_cat_id": 38493,
        "meta_element_set_no": 999,
        "meta_rev_at_epoch": 56660,
        "meta_bstar": 0.00019268039,
        "meta_mean_motion_dot": 2.34e-06,
        "meta_mean_motion_ddot": 0,
        "tle_line1": "1 38493U 99025ESC 25358.64068021  .00000234  00000+0  19268-3 0  9999",
        "tle_line2": "2 38493  99.0811 317.2644 0426499 214.2479 143.0477 13.62325657566606"
      },
      "geometry": {
        "type": "Point",
        "coordinates": [
          118.37403748637638,
          -65.26135311112746
        ]
      }
    },
    {
      "type": "Feature",
      "properties": {
        "norad_id": 38494,
        "name": "FENGYUN 1C DEB",
        "group": "fengyun-1c-debris",
        "lat": -63.15238352106619,
        "lon": -33.574634166622175,
        "alt_km": 669.6773701022912,
        "timestamp": "2025-12-26T03:50:12.383454+00:00",
        "meta_object_name": "FENGYUN 1C DEB",
        "meta_object_id": "1999-025ESD",
        "meta_epoch": "2025-12-24T02:24:03.074112",
        "meta_mean_motion": 14.00504572,
        "meta_eccentricity": 0.03833507,
        "meta_inclination": 98.4389,
        "meta_ra_of_asc_node": 307.463,
        "meta_arg_of_pericenter": 337.3093,
        "meta_mean_anomaly": 21.1511,
        "meta_ephemeris_type": 0,
        "meta_classification_type": "U",
        "meta_norad_cat_id": 38494,
        "meta_element_set_no": 999,
        "meta_rev_at_epoch": 7313,
        "meta_bstar": 0.0049089492,
        "meta_mean_motion_dot": 0.00013814,
        "meta_mean_motion_ddot": 0,
        "tle_line1": "1 38494U 99025ESD 25358.10003558  .00013814  00000+0  49089-2 0  9996",
        "tle_line2": "2 38494  98.4389 307.4630 0383350 337.3093  21.1511 14.00504572 73137"
      },
      "geometry": {
        "type": "Point",
        "coordinates": [
          -33.574634166622175,
          -63.15238352106619
        ]
      }
    },
    {
      "type": "Feature",
      "properties": {
        "norad_id": 38495,
        "name": "FENGYUN 1C DEB",
        "group": "fengyun-1c-debris",
        "lat": -2.968551782235226,
        "lon": 16.34531944067864,
        "alt_km": 1053.838312003858,
        "timestamp": "2025-12-26T03:50:12.383466+00:00",
        "meta_object_name": "FENGYUN 1C DEB",
        "meta_object_id": "1999-025ESE",
        "meta_epoch": "2025-12-02T06:20:41.771904",
        "meta_mean_motion": 13.69106573,
        "meta_eccentricity": 0.0252581,
        "meta_inclination": 99.1709,
        "meta_ra_of_asc_node": 353.1036,
        "meta_arg_of_pericenter": 165.9119,
        "meta_mean_anomaly": 194.9245,
        "meta_ephemeris_type": 0,
        "meta_classification_type": "U",
        "meta_norad_cat_id": 38495,
        "meta_element_set_no": 999,
        "meta_rev_at_epoch": 60969,
        "meta_bstar": 0.0025866,
        "meta_mean_motion_dot": 2.759e-05,
        "meta_mean_motion_ddot": 0,
        "tle_line1": "1 38495U 99025ESE 25336.26437236  .00002759  00000+0  25866-2 0  9997",
        "tle_line2": "2 38495  99.1709 353.1036 0252581 165.9119 194.9245 13.69106573609697"
      },
      "geometry": {
        "type": "Point",
        "coordinates": [
          16.34531944067864,
          -2.968551782235226
        ]
      }
    }
  ]
}